CCSDS_OMM_VERS = 2.0
CREATION_DATE  = 
ORIGINATOR     = 

OBJECT_NAME    = UNKNOWN
OBJECT_ID      = 
CENTER_NAME    = EARTH
REF_FRAME      = TEME
TIME_SYSTEM    = UTC
MEAN_ELEMENT_THEORY = SGP/SGP4

EPOCH          = 2026-03-03T15:28:02.212320
MEAN_MOTION    = 13.91836471
ECCENTRICITY   = .0103884
INCLINATION    = 99.2428
RA_OF_ASC_NODE = 122.9123
ARG_OF_PERICENTER = 66.0612
MEAN_ANOMALY   = 85.0544

EPHEMERIS_TYPE = 0
CLASSIFICATION_TYPE = U
NORAD_CAT_ID   = 87237
ELEMENT_SET_NO = 999
REV_AT_EPOCH   = 62301
BSTAR          = .31359E-3
MEAN_MOTION_DOT = .373E-5
MEAN_MOTION_DDOT = 0

CCSDS_OMM_VERS = 2.0
CREATION_DATE  = 
ORIGINATOR     = 

OBJECT_NAME    = UNKNOWN
OBJECT_ID      = 
CENTER_NAME    = EARTH
REF_FRAME      = TEME
TIME_SYSTEM    = UTC
MEAN_ELEMENT_THEORY = SGP/SGP4

EPOCH          = 2026-03-02T06:58:13.345536
MEAN_MOTION    = 14.53766017
ECCENTRICITY   = .0019592
INCLINATION    = 82.8753
RA_OF_ASC_NODE = 15.2057
ARG_OF_PERICENTER = 136.7236
MEAN_ANOMALY   = 223.5506

EPHEMERIS_TYPE = 0
CLASSIFICATION_TYPE = U
NORAD_CAT_ID   = 87239
ELEMENT_SET_NO = 999
REV_AT_EPOCH   = 63942
BSTAR          = .28932E-2
MEAN_MOTION_DOT = .12193E-3
MEAN_MOTION_DDOT = 0

CCSDS_OMM_VERS = 2.0
CREATION_DATE  = 
ORIGINATOR     = 

OBJECT_NAME    = UNKNOWN
OBJECT_ID      = 
CENTER_NAME    = EARTH
REF_FRAME      = TEME
TIME_SYSTEM    = UTC
MEAN_ELEMENT_THEORY = SGP/SGP4

EPOCH          = 2026-03-03T08:35:59.743968
MEAN_MOTION    = 14.16673893
ECCENTRICITY   = .0425405
INCLINATION    = 65.6456
RA_OF_ASC_NODE = 192.0662
ARG_OF_PERICENTER = 80.7492
MEAN_ANOMALY   = 315.3707

EPHEMERIS_TYPE = 0
CLASSIFICATION_TYPE = U
NORAD_CAT_ID   = 87245
ELEMENT_SET_NO = 999
REV_AT_EPOCH   = 62562
BSTAR          = .86966E-3
MEAN_MOTION_DOT = .4151E-4
MEAN_MOTION_DDOT = 0

CCSDS_OMM_VERS = 2.0
CREATION_DATE  = 
ORIGINATOR     = 

OBJECT_NAME    = UNKNOWN
OBJECT_ID      = 
CENTER_NAME    = EARTH
REF_FRAME      = TEME
TIME_SYSTEM    = UTC
MEAN_ELEMENT_THEORY = SGP/SGP4

EPOCH          = 2026-03-03T06:46:45.212736
MEAN_MOTION    = 14.22876485
ECCENTRICITY   = .0420224
INCLINATION    = 65.7561
RA_OF_ASC_NODE = 19.6125
ARG_OF_PERICENTER = 30.9386
MEAN_ANOMALY   = 331.5740

EPHEMERIS_TYPE = 0
CLASSIFICATION_TYPE = U
NORAD_CAT_ID   = 87271
ELEMENT_SET_NO = 999
REV_AT_EPOCH   = 62382
BSTAR          = .34798E-2
MEAN_MOTION_DOT = .19606E-3
MEAN_MOTION_DDOT = 0

CCSDS_OMM_VERS = 2.0
CREATION_DATE  = 
ORIGINATOR     = 

OBJECT_NAME    = UNKNOWN
OBJECT_ID      = 
CENTER_NAME    = EARTH
REF_FRAME      = TEME
TIME_SYSTEM    = UTC
MEAN_ELEMENT_THEORY = SGP/SGP4

EPOCH          = 2026-03-01T22:44:24.477792
MEAN_MOTION    = 13.48637859
ECCENTRICITY   = .0128378
INCLINATION    = 64.6158
RA_OF_ASC_NODE = 39.4575
ARG_OF_PERICENTER = 245.8443
MEAN_ANOMALY   = 112.9129

EPHEMERIS_TYPE = 0
CLASSIFICATION_TYPE = U
NORAD_CAT_ID   = 87280
ELEMENT_SET_NO = 999
REV_AT_EPOCH   = 54453
BSTAR          = .59571E-3
MEAN_MOTION_DOT = .307E-5
MEAN_MOTION_DDOT = 0

CCSDS_OMM_VERS = 2.0
CREATION_DATE  = 
ORIGINATOR     = 

OBJECT_NAME    = UNKNOWN
OBJECT_ID      = 
CENTER_NAME    = EARTH
REF_FRAME      = TEME
TIME_SYSTEM    = UTC
MEAN_ELEMENT_THEORY = SGP/SGP4

EPOCH          = 2026-03-03T00:43:25.912128
MEAN_MOTION    = 14.19592246
ECCENTRICITY   = .0427596
INCLINATION    = 65.8962
RA_OF_ASC_NODE = 291.6039
ARG_OF_PERICENTER = 316.3933
MEAN_ANOMALY   = 40.4079

EPHEMERIS_TYPE = 0
CLASSIFICATION_TYPE = U
NORAD_CAT_ID   = 87293
ELEMENT_SET_NO = 999
REV_AT_EPOCH   = 62538
BSTAR          = .1146E-2
MEAN_MOTION_DOT = .6016E-4
MEAN_MOTION_DDOT = 0

CCSDS_OMM_VERS = 2.0
CREATION_DATE  = 
ORIGINATOR     = 

OBJECT_NAME    = UNKNOWN
OBJECT_ID      = 
CENTER_NAME    = EARTH
REF_FRAME      = TEME
TIME_SYSTEM    = UTC
MEAN_ELEMENT_THEORY = SGP/SGP4

EPOCH          = 2026-03-02T10:17:45.763296
MEAN_MOTION    = 13.99772840
ECCENTRICITY   = .0026566
INCLINATION    = 100.0987
RA_OF_ASC_NODE = 56.9516
ARG_OF_PERICENTER = 80.1947
MEAN_ANOMALY   = 280.2212

EPHEMERIS_TYPE = 0
CLASSIFICATION_TYPE = U
NORAD_CAT_ID   = 87300
ELEMENT_SET_NO = 999
REV_AT_EPOCH   = 62426
BSTAR          = .13048E-2
MEAN_MOTION_DOT = .1865E-4
MEAN_MOTION_DDOT = 0

CCSDS_OMM_VERS = 2.0
CREATION_DATE  = 
ORIGINATOR     = 

OBJECT_NAME    = UNKNOWN
OBJECT_ID      = 
CENTER_NAME    = EARTH
REF_FRAME      = TEME
TIME_SYSTEM    = UTC
MEAN_ELEMENT_THEORY = SGP/SGP4

EPOCH          = 2026-02-24T01:40:01.734528
MEAN_MOTION    = 14.75775931
ECCENTRICITY   = .0016746
INCLINATION    = 74.0188
RA_OF_ASC_NODE = 177.3609
ARG_OF_PERICENTER = 130.9964
MEAN_ANOMALY   = 229.2662

EPHEMERIS_TYPE = 0
CLASSIFICATION_TYPE = U
NORAD_CAT_ID   = 87304
ELEMENT_SET_NO = 999
REV_AT_EPOCH   = 65729
BSTAR          = .32596E-3
MEAN_MOTION_DOT = .2205E-4
MEAN_MOTION_DDOT = 0

CCSDS_OMM_VERS = 2.0
CREATION_DATE  = 
ORIGINATOR     = 

OBJECT_NAME    = UNKNOWN
OBJECT_ID      = 
CENTER_NAME    = EARTH
REF_FRAME      = TEME
TIME_SYSTEM    = UTC
MEAN_ELEMENT_THEORY = SGP/SGP4

EPOCH          = 2026-03-03T14:35:07.859040
MEAN_MOTION    = 13.70451952
ECCENTRICITY   = .042098
INCLINATION    = 66.5908
RA_OF_ASC_NODE = 251.3198
ARG_OF_PERICENTER = 2.9412
MEAN_ANOMALY   = 357.3983

EPHEMERIS_TYPE = 0
CLASSIFICATION_TYPE = U
NORAD_CAT_ID   = 87320
ELEMENT_SET_NO = 999
REV_AT_EPOCH   = 60482
BSTAR          = .86995E-3
MEAN_MOTION_DOT = .1369E-4
MEAN_MOTION_DDOT = 0

CCSDS_OMM_VERS = 2.0
CREATION_DATE  = 
ORIGINATOR     = 

OBJECT_NAME    = UNKNOWN
OBJECT_ID      = 
CENTER_NAME    = EARTH
REF_FRAME      = TEME
TIME_SYSTEM    = UTC
MEAN_ELEMENT_THEORY = SGP/SGP4

EPOCH          = 2026-03-03T14:52:36.871680
MEAN_MOTION    = 14.10178845
ECCENTRICITY   = .0067348
INCLINATION    = 90.0062
RA_OF_ASC_NODE = 271.7008
ARG_OF_PERICENTER = 343.6732
MEAN_ANOMALY   = 16.2282

EPHEMERIS_TYPE = 0
CLASSIFICATION_TYPE = U
NORAD_CAT_ID   = 87334
ELEMENT_SET_NO = 999
REV_AT_EPOCH   = 39803
BSTAR          = .10803E-1
MEAN_MOTION_DOT = .19567E-3
MEAN_MOTION_DDOT = 0

CCSDS_OMM_VERS = 2.0
CREATION_DATE  = 
ORIGINATOR     = 

OBJECT_NAME    = UNKNOWN
OBJECT_ID      = 
CENTER_NAME    = EARTH
REF_FRAME      = TEME
TIME_SYSTEM    = UTC
MEAN_ELEMENT_THEORY = SGP/SGP4

EPOCH          = 2026-03-03T13:05:48.478272
MEAN_MOTION    = 14.10340147
ECCENTRICITY   = .0085805
INCLINATION    = 89.9947
RA_OF_ASC_NODE = 267.8868
ARG_OF_PERICENTER = 324.0485
MEAN_ANOMALY   = 35.4945

EPHEMERIS_TYPE = 0
CLASSIFICATION_TYPE = U
NORAD_CAT_ID   = 87335
ELEMENT_SET_NO = 999
REV_AT_EPOCH   = 39835
BSTAR          = .11474E-1
MEAN_MOTION_DOT = .21125E-3
MEAN_MOTION_DDOT = 0

CCSDS_OMM_VERS = 2.0
CREATION_DATE  = 
ORIGINATOR     = 

OBJECT_NAME    = UNKNOWN
OBJECT_ID      = 
CENTER_NAME    = EARTH
REF_FRAME      = TEME
TIME_SYSTEM    = UTC
MEAN_ELEMENT_THEORY = SGP/SGP4

EPOCH          = 2026-03-03T12:43:34.156416
MEAN_MOTION    = 13.96757705
ECCENTRICITY   = .0060056
INCLINATION    = 82.7536
RA_OF_ASC_NODE = 356.3623
ARG_OF_PERICENTER = 95.6642
MEAN_ANOMALY   = 265.1378

EPHEMERIS_TYPE = 0
CLASSIFICATION_TYPE = U
NORAD_CAT_ID   = 87405
ELEMENT_SET_NO = 999
REV_AT_EPOCH   = 62243
BSTAR          = .21939E-2
MEAN_MOTION_DOT = .3107E-4
MEAN_MOTION_DDOT = 0

